{"type": "FeatureCollection", "features": [ {"type": "Feature", "properties": {"norad_id": 41019, "name": "GPS BIIF-11 (PRN 10)", "group": "gnss", "lat": 20.99384261852764, "lon": 52.73335088068261, "alt_km": 20447.06687382468, "timestamp": "2025-12-07T20:38:14.309220+00:00", "meta": {"OBJECT_NAME": "GPS BIIF-11 (PRN 10)", "OBJECT_ID": "2015-062A", "EPOCH": "2025-12-06T19:50:55.474944", "MEAN_MOTION": 2.00566966, "ECCENTRICITY": 0.01106613, "INCLINATION": 56.8279, "RA_OF_ASC_NODE": 38.2311, "ARG_OF_PERICENTER": 229.7726, "MEAN_ANOMALY": 129.3101, "EPHEMERIS_TYPE": 0, "CLASSIFICATION_TYPE": "U", "NORAD_CAT_ID": 41019, "ELEMENT_SET_NO": 999, "REV_AT_EPOCH": 7397, "BSTAR": 0, "MEAN_MOTION_DOT": -7e-07, "MEAN_MOTION_DDOT": 0}, "tle": {"line1": "1 41019U 15062A   25340.82703096 -.00000070  00000+0  00000+0 0  9994", "line2": "2 41019  56.8279  38.2311 0110661 229.7726 129.3101  2.00566966 73975"}}, "geometry": {"type": "Point", "coordinates": [52.73335088068261, 20.99384261852764]}}, {"type": "Feature", "properties": {"norad_id": 41028, "name": "GSAT-15 (GAGAN/PRN 139)", "group": "gnss", "lat": 0.030007523721774457, "lon": 119.90246640411792, "alt_km": 35792.307508036, "timestamp": "2025-12-07T20:38:14.309232+00:00", "meta": {"OBJECT_NAME": "GSAT-15 (GAGAN/PRN 139)", "OBJECT_ID": "2015-065A", "EPOCH": "2025-12-07T02:56:38.630112", "MEAN_MOTION": 1.00270988, "ECCENTRICITY": 0.00029725, "INCLINATION": 0.0408, "RA_OF_ASC_NODE": 95.7652, "ARG_OF_PERICENTER": 142.099, "MEAN_ANOMALY": 335.952, "EPHEMERIS_TYPE": 0, "CLASSIFICATION_TYPE": "U", "NORAD_CAT_ID": 41028, "ELEMENT_SET_NO": 999, "REV_AT_EPOCH": 3687, "BSTAR": 0, "MEAN_MOTION_DOT": -2.53e-06, "MEAN_MOTION_DDOT": 0}, "tle": {"line1": "1 41028U 15065A   25341.12266933 -.00000253  00000+0  00000+0 0  9998", "line2": "2 41028   0.0408  95.7652 0002972 142.0990 335.9520  1.00270988 36874"}}, "geometry": {"type": "Point", "coordinates": [119.90246640411792, 0.030007523721774457]}}, {"type": "Feature", "properties": {"norad_id": 41174, "name": "GSAT0209 (GALILEO 12)", "group": "gnss", "lat": 23.70603081404133, "lon": 123.9194393514256, "alt_km": 23213.372154186505, "timestamp": "2025-12-07T20:38:14.309244+00:00", "meta": {"OBJECT_NAME": "GSAT0209 (GALILEO 12)", "OBJECT_ID": "2015-079A", "EPOCH": "2025-12-01T22:43:10.411392", "MEAN_MOTION": 1.70474306, "ECCENTRICITY": 0.0002352, "INCLINATION": 55.7062, "RA_OF_ASC_NODE": 106.6773, "ARG_OF_PERICENTER": 357.4206, "MEAN_ANOMALY": 2.5431, "EPHEMERIS_TYPE": 0, "CLASSIFICATION_TYPE": "U", "NORAD_CAT_ID": 41174, "ELEMENT_SET_NO": 999, "REV_AT_EPOCH": 6141, "BSTAR": 0, "MEAN_MOTION_DOT": 3.5e-07, "MEAN_MOTION_DDOT": 0}, "tle": {"line1": "1 41174U 15079A   25335.94664828  .00000035  00000+0  00000+0 0  9990", "line2": "2 41174  55.7062 106.6773 0002352 357.4206   2.5431  1.70474306 61412"}}, "geometry": {"type": "Point", "coordinates": [123.9194393514256, 23.70603081404133]}}, {"type": "Feature", "properties": {"norad_id": 41175, "name": "GSAT0208 (GALILEO 11)", "group": "gnss", "lat": -52.58455906224032, "lon": -10.48266132056457, "alt_km": 23230.159211672442, "timestamp": "2025-12-07T20:38:14.309257+00:00", "meta": {"OBJECT_NAME": "GSAT0208 (GALILEO 11)", "OBJECT_ID": "2015-079B", "EPOCH": "2025-12-05T16:28:14.683584", "MEAN_MOTION": 1.70474159, "ECCENTRICITY": 0.00019173, "INCLINATION": 55.707, "RA_OF_ASC_NODE": 106.5718, "ARG_OF_PERICENTER": 7.3332, "MEAN_ANOMALY": 352.6208, "EPHEMERIS_TYPE": 0, "CLASSIFICATION_TYPE": "U", "NORAD_CAT_ID": 41175, "ELEMENT_SET_NO": 999, "REV_AT_EPOCH": 6189, "BSTAR": 0, "MEAN_MOTION_DOT": 8e-08, "MEAN_MOTION_DDOT": 0}, "tle": {"line1": "1 41175U 15079B   25339.68628106  .00000008  00000+0  00000+0 0  9995", "line2": "2 41175  55.7070 106.5718 0001917   7.3332 352.6208  1.70474159 61896"}}, "geometry": {"type": "Point", "coordinates": [-10.48266132056457, -52.58455906224032]}}, {"type": "Feature", "properties": {"norad_id": 41241, "name": "IRNSS-1E", "group": "gnss", "lat": 31.666651105413344, "lon": 135.37579750850304, "alt_km": 35815.00977443612, "timestamp": "2025-12-07T20:38:14.309269+00:00", "meta": {"OBJECT_NAME": "IRNSS-1E", "OBJECT_ID": "2016-003A", "EPOCH": "2025-12-06T15:54:27.343008", "MEAN_MOTION": 1.00276405, "ECCENTRICITY": 0.00218909, "INCLINATION": 32.8123, "RA_OF_ASC_NODE": 62.5421, "ARG_OF_PERICENTER": 186.8632, "MEAN_ANOMALY": 176.6639, "EPHEMERIS_TYPE": 0, "CLASSIFICATION_TYPE": "U", "NORAD_CAT_ID": 41241, "ELEMENT_SET_NO": 999, "REV_AT_EPOCH": 3615, "BSTAR": 0, "MEAN_MOTION_DOT": -3.14e-06, "MEAN_MOTION_DDOT": 0}, "tle": {"line1": "1 41241U 16003A   25340.66281647 -.00000314  00000+0  00000+0 0  9993", "line2": "2 41241  32.8123  62.5421 0021890 186.8632 176.6639  1.00276405 36155"}}, "geometry": {"type": "Point", "coordinates": [135.37579750850304, 31.666651105413344]}}, {"type": "Feature", "properties": {"norad_id": 41328, "name": "GPS BIIF-12 (PRN 32)", "group": "gnss", "lat": -27.106382662215893, "lon": 76.38008305640585, "alt_km": 20154.325990362202, "timestamp": "2025-12-07T20:38:14.309293+00:00", "meta": {"OBJECT_NAME": "GPS BIIF-12 (PRN 32)", "OBJECT_ID": "2016-007A", "EPOCH": "2025-12-05T09:55:37.612128", "MEAN_MOTION": 2.00560998, "ECCENTRICITY": 0.00917952, "INCLINATION": 55.402, "RA_OF_ASC_NODE": 97.1478, "ARG_OF_PERICENTER": 243.3887, "MEAN_ANOMALY": 115.6411, "EPHEMERIS_TYPE": 0, "CLASSIFICATION_TYPE": "U", "NORAD_CAT_ID": 41328, "ELEMENT_SET_NO": 999, "REV_AT_EPOCH": 7195, "BSTAR": 0, "MEAN_MOTION_DOT": -1.1e-07, "MEAN_MOTION_DDOT": 0}, "tle": {"line1": "1 41328U 16007A   25339.41362977 -.00000011  00000+0  00000+0 0  9994", "line2": "2 41328  55.4020  97.1478 0091795 243.3887 115.6411  2.00560998 71958"}}, "geometry": {"type": "Point", "coordinates": [76.38008305640585, -27.106382662215893]}}, {"type": "Feature", "properties": {"norad_id": 41330, "name": "COSMOS 2514 (751)", "group": "gnss", "lat": 22.757333376349763, "lon": -29.22757086284367, "alt_km": 19157.761883616145, "timestamp": "2025-12-07T20:38:14.309339+00:00", "meta": {"OBJECT_NAME": "COSMOS 2514 (751)", "OBJECT_ID": "2016-008A", "EPOCH": "2025-12-06T21:19:17.818752", "MEAN_MOTION": 2.13102518, "ECCENTRICITY": 0.00123323, "INCLINATION": 65.1372, "RA_OF_ASC_NODE": 319.6044, "ARG_OF_PERICENTER": 219.9906, "MEAN_ANOMALY": 139.9121, "EPHEMERIS_TYPE": 0, "CLASSIFICATION_TYPE": "U", "NORAD_CAT_ID": 41330, "ELEMENT_SET_NO": 999, "REV_AT_EPOCH": 7652, "BSTAR": 0, "MEAN_MOTION_DOT": -4.9e-07, "MEAN_MOTION_DDOT": 0}, "tle": {"line1": "1 41330U 16008A   25340.88840068 -.00000049  00000+0  00000+0 0  9994", "line2": "2 41330  65.1372 319.6044 0012332 219.9906 139.9121  2.13102518 76520"}}, "geometry": {"type": "Point", "coordinates": [-29.22757086284367, 22.757333376349763]}}, {"type": "Feature", "properties": {"norad_id": 41384, "name": "IRNSS-1F", "group": "gnss", "lat": -3.2592129381090738, "lon": 59.07639673179478, "alt_km": 35857.24015028521, "timestamp": "2025-12-07T20:38:14.309354+00:00", "meta": {"OBJECT_NAME": "IRNSS-1F", "OBJECT_ID": "2016-015A", "EPOCH": "2025-12-07T01:48:09.434880", "MEAN_MOTION": 1.0026953, "ECCENTRICITY": 0.00224504, "INCLINATION": 4.8662, "RA_OF_ASC_NODE": 101.44, "ARG_OF_PERICENTER": 179.9759, "MEAN_ANOMALY": 214.0959, "EPHEMERIS_TYPE": 0, "CLASSIFICATION_TYPE": "U", "NORAD_CAT_ID": 41384, "ELEMENT_SET_NO": 999, "REV_AT_EPOCH": 3574, "BSTAR": 0, "MEAN_MOTION_DOT": 1.61e-06, "MEAN_MOTION_DDOT": 0}, "tle": {"line1": "1 41384U 16015A   25341.07510920  .00000161  00000+0  00000+0 0  9998", "line2": "2 41384   4.8662 101.4400 0022450 179.9759 214.0959  1.00269530 35743"}}, "geometry": {"type": "Point", "coordinates": [59.07639673179478, -3.2592129381090738]}}, {"type": "Feature", "properties": {"norad_id": 41434, "name": "BEIDOU-2 IGSO-6 (C13)", "group": "gnss", "lat": 57.76177168891599, "lon": 106.39444935716504, "alt_km": 36008.85316703725, "timestamp": "2025-12-07T20:38:14.309367+00:00", "meta": {"OBJECT_NAME": "BEIDOU-2 IGSO-6 (C13)", "OBJECT_ID": "2016-021A", "EPOCH": "2025-12-01T15:57:35.287200", "MEAN_MOTION": 1.00256562, "ECCENTRICITY": 0.00591323, "INCLINATION": 59.9483, "RA_OF_ASC_NODE": 40.0119, "ARG_OF_PERICENTER": 231.2834, "MEAN_ANOMALY": 130.8807, "EPHEMERIS_TYPE": 0, "CLASSIFICATION_TYPE": "U", "NORAD_CAT_ID": 41434, "ELEMENT_SET_NO": 999, "REV_AT_EPOCH": 3550, "BSTAR": 0, "MEAN_MOTION_DOT": -1.55e-06, "MEAN_MOTION_DDOT": 0}, "tle": {"line1": "1 41434U 16021A   25335.66499175 -.00000155  00000+0  00000+0 0  9991", "line2": "2 41434  59.9483  40.0119 0059132 231.2834 130.8807  1.00256562 35501"}}, "geometry": {"type": "Point", "coordinates": [106.39444935716504, 57.76177168891599]}}, {"type": "Feature", "properties": {"norad_id": 41469, "name": "IRNSS-1G", "group": "gnss", "lat": 3.8049430678932383, "lon": 155.74447985465972, "alt_km": 35786.7512195902, "timestamp": "2025-12-07T20:38:14.309380+00:00", "meta": {"OBJECT_NAME": "IRNSS-1G", "OBJECT_ID": "2016-027A", "EPOCH": "2025-12-07T05:41:23.125344", "MEAN_MOTION": 1.00251985, "ECCENTRICITY": 0.00046561, "INCLINATION": 4.7193, "RA_OF_ASC_NODE": 102.2409, "ARG_OF_PERICENTER": 336.6889, "MEAN_ANOMALY": 212.0722, "EPHEMERIS_TYPE": 0, "CLASSIFICATION_TYPE": "U", "NORAD_CAT_ID": 41469, "ELEMENT_SET_NO": 999, "REV_AT_EPOCH": 3525, "BSTAR": 0, "MEAN_MOTION_DOT": -3.33e-06, "MEAN_MOTION_DDOT": 0}, "tle": {"line1": "1 41469U 16027A   25341.23707321 -.00000333  00000+0  00000+0 0  9998", "line2": "2 41469   4.7193 102.2409 0004656 336.6889 212.0722  1.00251985 35254"}}, "geometry": {"type": "Point", "coordinates": [155.74447985465972, 3.8049430678932383]}}]}